[{"OBJECT_NAME":"STARLINK-6197","OBJECT_ID":"2023-078A","EPOCH":"2026-03-09T22:55:29.940960","MEAN_MOTION":15.17018833,"ECCENTRICITY":0.00072438,"INCLINATION":69.9932,"RA_OF_ASC_NODE":349.0269,"ARG_OF_PERICENTER":212.47,"MEAN_ANOMALY":147.6024,"EPHEMERIS_TYPE":0,"CLASSIFICATION_TYPE":"U","NORAD_CAT_ID":56767,"ELEMENT_SET_NO":999,"REV_AT_EPOCH":15259,"BSTAR":0.00062350917,"MEAN_MOTION_DOT":0.00012272,"MEAN_MOTION_DDOT":0},{"OBJECT_NAME":"FLOCK 4H-18","OBJECT_ID":"2025-276BH","EPOCH":"2026-03-09T16:52:19.316640","MEAN_MOTION":15.1850104,"ECCENTRICITY":0.00043189,"INCLINATION":97.4245,"RA_OF_ASC_NODE":143.8758,"ARG_OF_PERICENTER":35.357,"MEAN_ANOMALY":324.795,"EPHEMERIS_TYPE":0,"CLASSIFICATION_TYPE":"U","NORAD_CAT_ID":66721,"ELEMENT_SET_NO":999,"REV_AT_EPOCH":1531,"BSTAR":0.00039590396,"MEAN_MOTION_DOT":8.104e-5,"MEAN_MOTION_DDOT":0}]
